GLOBALSTAR M035         
1 25851U 99037A   25145.61550716 -.00000076  00000+0 -47721-3 0  9995
2 25851  51.9931 105.3003 0014165 305.9869 225.0773 11.04538509 93767
GLOBALSTAR M032         
1 25852U 99037B   25145.64389706 -.00000064  00000+0  88968-4 0  9993
2 25852  51.9962 291.9919 0012811 128.5605 231.6345 11.19060522132261
GLOBALSTAR M051         
1 25853U 99037C   25145.56393952 -.00000088  00000+0 -39395-3 0  9999
2 25853  51.9784  95.4653 0000307 162.7502 197.3319 11.42204872129808
GLOBALSTAR M030         
1 25854U 99037D   25145.58508117 -.00000058  00000+0  35026-3 0  9996
2 25854  51.9879 262.9611 0002879  14.4612 345.6287 11.55110155147435
GLOBALSTAR M048         
1 25872U 99041A   25145.39850384 -.00000064  00000+0  15632-3 0  9994
2 25872  51.9399  30.0188 0013375 142.5859  28.8027 11.33856753122391
GLOBALSTAR M026         
1 25873U 99041B   25145.46910865  .00000048  00000+0  41441-2 0  9991
2 25873  51.9994 223.8298 0002369 223.1519 149.4241 11.06838865145978
GLOBALSTAR M043         
1 25874U 99041C   25145.37829975 -.00000057  00000+0  31936-3 0  9993
2 25874  51.9364 136.8026 0013659 273.8753 232.4466 11.25694539120309
GLOBALSTAR M028         
1 25875U 99041D   25145.61447952 -.00000086  00000+0  97454-4 0  9992
2 25875  51.9624 260.3742 0063144  23.0608 337.3067 12.50582689187356
